{
  "type": "FeatureCollection",
  "features": [
    {
      "type": "Feature",
      "properties": {
        "norad_id": 30947,
        "name": "FENGYUN 1C DEB",
        "group": "fengyun-1c-debris",
        "lat": 43.86066780946166,
        "lon": 66.64860983569456,
        "alt_km": 781.0625021619535,
        "timestamp": "2025-12-14T09:36:23.316483+00:00",
        "meta_object_name": "FENGYUN 1C DEB",
        "meta_object_id": "1999-025BAM",
        "meta_epoch": "2025-12-13T11:15:39.380256",
        "meta_mean_motion": 14.38044293,
        "meta_eccentricity": 0.00957651,
        "meta_inclination": 98.8085,
        "meta_ra_of_asc_node": 237.1245,
        "meta_arg_of_pericenter": 245.5244,
        "meta_mean_anomaly": 113.5932,
        "meta_ephemeris_type": 0,
        "meta_classification_type": "U",
        "meta_norad_cat_id": 30947,
        "meta_element_set_no": 999,
        "meta_rev_at_epoch": 98503,
        "meta_bstar": 0.0004693065,
        "meta_mean_motion_dot": 1.449e-05,
        "meta_mean_motion_ddot": 0,
        "tle_line1": "1 30947U 99025BAM 25347.46920579  .00001449  00000+0  46931-3 0  9994",
        "tle_line2": "2 30947  98.8085 237.1245 0095765 245.5244 113.5932 14.38044293985032"
      },
      "geometry": {
        "type": "Point",
        "coordinates": [
          66.64860983569456,
          43.86066780946166
        ]
      }
    },
    {
      "type": "Feature",
      "properties": {
        "norad_id": 30949,
        "name": "FENGYUN 1C DEB",
        "group": "fengyun-1c-debris",
        "lat": -76.50570011986773,
        "lon": 22.342664391762494,
        "alt_km": 776.3067328871257,
        "timestamp": "2025-12-14T09:36:23.316493+00:00",
        "meta_object_name": "FENGYUN 1C DEB",
        "meta_object_id": "1999-025BAP",
        "meta_epoch": "2025-12-12T22:27:07.898112",
        "meta_mean_motion": 14.14048468,
        "meta_eccentricity": 0.01163751,
        "meta_inclination": 98.6979,
        "meta_ra_of_asc_node": 341.2809,
        "meta_arg_of_pericenter": 309.2756,
        "meta_mean_anomaly": 79.3493,
        "meta_ephemeris_type": 0,
        "meta_classification_type": "U",
        "meta_norad_cat_id": 30949,
        "meta_element_set_no": 999,
        "meta_rev_at_epoch": 96519,
        "meta_bstar": 0.00038091832,
        "meta_mean_motion_dot": 7.29e-06,
        "meta_mean_motion_ddot": 0,
        "tle_line1": "1 30949U 99025BAP 25346.93550808  .00000729  00000+0  38092-3 0  9990",
        "tle_line2": "2 30949  98.6979 341.2809 0116375 309.2756  79.3493 14.14048468965192"
      },
      "geometry": {
        "type": "Point",
        "coordinates": [
          22.342664391762494,
          -76.50570011986773
        ]
      }
    },
    {
      "type": "Feature",
      "properties": {
        "norad_id": 30954,
        "name": "FENGYUN 1C DEB",
        "group": "fengyun-1c-debris",
        "lat": -29.525856636521098,
        "lon": 93.45790479478839,
        "alt_km": 926.6032787948334,
        "timestamp": "2025-12-14T09:36:23.316504+00:00",
        "meta_object_name": "FENGYUN 1C DEB",
        "meta_object_id": "1999-025BAU",
        "meta_epoch": "2025-12-13T13:27:41.332320",
        "meta_mean_motion": 14.14938562,
        "meta_eccentricity": 0.01288279,
        "meta_inclination": 98.713,
        "meta_ra_of_asc_node": 87.6556,
        "meta_arg_of_pericenter": 184.9499,
        "meta_mean_anomaly": 191.2536,
        "meta_ephemeris_type": 0,
        "meta_classification_type": "U",
        "meta_norad_cat_id": 30954,
        "meta_element_set_no": 999,
        "meta_rev_at_epoch": 96399,
        "meta_bstar": 0.0016912953,
        "meta_mean_motion_dot": 3.501e-05,
        "meta_mean_motion_ddot": 0,
        "tle_line1": "1 30954U 99025BAU 25347.56089505  .00003501  00000+0  16913-2 0  9995",
        "tle_line2": "2 30954  98.7130  87.6556 0128827 184.9499 191.2536 14.14938562963996"
      },
      "geometry": {
        "type": "Point",
        "coordinates": [
          93.45790479478839,
          -29.525856636521098
        ]
      }
    },
    {
      "type": "Feature",
      "properties": {
        "norad_id": 30956,
        "name": "FENGYUN 1C DEB",
        "group": "fengyun-1c-debris",
        "lat": -38.03543667692759,
        "lon": 29.311896618407435,
        "alt_km": 817.2758396876698,
        "timestamp": "2025-12-14T09:36:23.316514+00:00",
        "meta_object_name": "FENGYUN 1C DEB",
        "meta_object_id": "1999-025BAW",
        "meta_epoch": "2025-12-13T14:07:34.451616",
        "meta_mean_motion": 14.1421158,
        "meta_eccentricity": 0.00491935,
        "meta_inclination": 98.7606,
        "meta_ra_of_asc_node": 21.5877,
        "meta_arg_of_pericenter": 340.4679,
        "meta_mean_anomaly": 171.1532,
        "meta_ephemeris_type": 0,
        "meta_classification_type": "U",
        "meta_norad_cat_id": 30956,
        "meta_element_set_no": 999,
        "meta_rev_at_epoch": 96319,
        "meta_bstar": 0.001210842,
        "meta_mean_motion_dot": 2.293e-05,
        "meta_mean_motion_ddot": 0,
        "tle_line1": "1 30956U 99025BAW 25347.58859319  .00002293  00000+0  12108-2 0  9996",
        "tle_line2": "2 30956  98.7606  21.5877 0049193 340.4679 171.1532 14.14211580963195"
      },
      "geometry": {
        "type": "Point",
        "coordinates": [
          29.311896618407435,
          -38.03543667692759
        ]
      }
    },
    {
      "type": "Feature",
      "properties": {
        "norad_id": 30960,
        "name": "FENGYUN 1C DEB",
        "group": "fengyun-1c-debris",
        "lat": 75.39661381219047,
        "lon": -37.9890934053857,
        "alt_km": 583.0931821896856,
        "timestamp": "2025-12-14T09:36:23.316524+00:00",
        "meta_object_name": "FENGYUN 1C DEB",
        "meta_object_id": "1999-025BBA",
        "meta_epoch": "2025-12-13T13:29:46.183776",
        "meta_mean_motion": 14.66901873,
        "meta_eccentricity": 0.01962656,
        "meta_inclination": 99.0001,
        "meta_ra_of_asc_node": 103.6238,
        "meta_arg_of_pericenter": 159.3773,
        "meta_mean_anomaly": 201.5492,
        "meta_ephemeris_type": 0,
        "meta_classification_type": "U",
        "meta_norad_cat_id": 30960,
        "meta_element_set_no": 999,
        "meta_rev_at_epoch": 98710,
        "meta_bstar": 0.0016999508,
        "meta_mean_motion_dot": 0.00012649,
        "meta_mean_motion_ddot": 0,
        "tle_line1": "1 30960U 99025BBA 25347.56234009  .00012649  00000+0  17000-2 0  9994",
        "tle_line2": "2 30960  99.0001 103.6238 0196265 159.3773 201.5492 14.66901873987109"
      },
      "geometry": {
        "type": "Point",
        "coordinates": [
          -37.9890934053857,
          75.39661381219047
        ]
      }
    },
    {
      "type": "Feature",
      "properties": {
        "norad_id": 30967,
        "name": "FENGYUN 1C DEB",
        "group": "fengyun-1c-debris",
        "lat": -80.55474812981643,
        "lon": 2.711321498277209,
        "alt_km": 657.3213682320466,
        "timestamp": "2025-12-14T09:36:23.316534+00:00",
        "meta_object_name": "FENGYUN 1C DEB",
        "meta_object_id": "1999-025BBH",
        "meta_epoch": "2025-12-13T07:38:01.394016",
        "meta_mean_motion": 14.571508,
        "meta_eccentricity": 0.00946581,
        "meta_inclination": 98.7633,
        "meta_ra_of_asc_node": 293.5665,
        "meta_arg_of_pericenter": 237.847,
        "meta_mean_anomaly": 121.3518,
        "meta_ephemeris_type": 0,
        "meta_classification_type": "U",
        "meta_norad_cat_id": 30967,
        "meta_element_set_no": 999,
        "meta_rev_at_epoch": 99022,
        "meta_bstar": 0.0013318017,
        "meta_mean_motion_dot": 6.335e-05,
        "meta_mean_motion_ddot": 0,
        "tle_line1": "1 30967U 99025BBH 25347.31807169  .00006335  00000+0  13318-2 0  9990",
        "tle_line2": "2 30967  98.7633 293.5665 0094658 237.8470 121.3518 14.57150800990226"
      },
      "geometry": {
        "type": "Point",
        "coordinates": [
          2.711321498277209,
          -80.55474812981643
        ]
      }
    },
    {
      "type": "Feature",
      "properties": {
        "norad_id": 30971,
        "name": "FENGYUN 1C DEB",
        "group": "fengyun-1c-debris",
        "lat": -24.580959617330915,
        "lon": -151.788390766796,
        "alt_km": 551.8026166270274,
        "timestamp": "2025-12-14T09:36:23.316545+00:00",
        "meta_object_name": "FENGYUN 1C DEB",
        "meta_object_id": "1999-025BBM",
        "meta_epoch": "2025-12-13T09:53:09.267648",
        "meta_mean_motion": 14.71715616,
        "meta_eccentricity": 0.01637969,
        "meta_inclination": 99.2106,
        "meta_ra_of_asc_node": 31.3502,
        "meta_arg_of_pericenter": 189.0934,
        "meta_mean_anomaly": 181.65,
        "meta_ephemeris_type": 0,
        "meta_classification_type": "U",
        "meta_norad_cat_id": 30971,
        "meta_element_set_no": 999,
        "meta_rev_at_epoch": 99727,
        "meta_bstar": 0.0010650786,
        "meta_mean_motion_dot": 8.136e-05,
        "meta_mean_motion_ddot": 0,
        "tle_line1": "1 30971U 99025BBM 25347.41191282  .00008136  00000+0  10651-2 0  9996",
        "tle_line2": "2 30971  99.2106  31.3502 0163796 189.0934 181.6500 14.71715616997273"
      },
      "geometry": {
        "type": "Point",
        "coordinates": [
          -151.788390766796,
          -24.580959617330915
        ]
      }
    }
  ]
}